NORAD_CAT_ID,OBJECT_NAME,OBJECT_TYPE,EPOCH,MEAN_MOTION,ECCENTRICITY,INCLINATION,RA_OF_ASC_NODE,ARG_OF_PERICENTER,MEAN_ANOMALY,BSTAR,MEAN_MOTION_DOT,MEAN_MOTION_DDOT,TLE_LINE0,TLE_LINE1,TLE_LINE2,SEMIMAJOR_AXIS,PERIOD,APOGEE,PERIGEE,DECAYED
52101.0,STARLINK-3703,PAYLOAD,2022-10-20 03:38:05,15.08845931,0.000151,53.2185,240.16,96.1011,264.0153,-5.087e-05,-1.098e-05,0.0,0 STARLINK-3703,1 52101U 22029P   22293.15145803 -.00001098  00000-0 -50870-4 0  9993,2 52101  53.2185 240.1600 0001510  96.1011 264.0153 15.08845931 33970,6917.861999999999,95.437,540.7719999999998,538.683,0.0
52101.0,STARLINK-3703,PAYLOAD,2022-10-20 06:48:52,15.08852014,0.0001424,53.218,239.5689,85.8126,274.3029,-0.00011888,-2.18e-05,0.0,0 STARLINK-3703,1 52101U 22029P   22293.28393627 -.00002180  00000-0 -11888-3 0  9994,2 52101  53.2180 239.5689 0001424  85.8126 274.3029 15.08852014 33998,6917.844,95.437,540.694,538.724,0.0
52101.0,STARLINK-3703,PAYLOAD,2022-10-21 03:28:53,15.08842505,0.0001708,53.2189,235.7025,62.569,297.5475,-2.3511e-05,-6.62e-06,0.0,0 STARLINK-3703,1 52101U 22029P   22294.14505995 -.00000662  00000-0 -23511-4 0  9993,2 52101  53.2189 235.7025 0001708  62.5690 297.5475 15.08842505 34124,6917.873000000001,95.437,540.919,538.556,0.0
52101.0,STARLINK-3703,PAYLOAD,2022-10-21 05:04:16,15.08838973,0.0001651,53.2182,235.4061,61.1029,299.0129,-4.5657e-05,-1.015e-05,0.0,0 STARLINK-3703,1 52101U 22029P   22294.21130272 -.00001015  00000-0 -45657-4 0  9991,2 52101  53.2182 235.4061 0001651  61.1029 299.0129 15.08838973 34130,6917.884,95.438,540.891,538.606,0.0
52101.0,STARLINK-3703,PAYLOAD,2022-10-22 06:30:26,15.08836742,0.0001808,53.2175,230.649,55.0654,305.0508,2.0918e-05,4.5e-07,0.0,0 STARLINK-3703,1 52101U 22029P   22295.27114395  .00000045  00000-0  20918-4 0  9999,2 52101  53.2175 230.6490 0001808  55.0654 305.0508 15.08836742 34293,6917.89,95.438,541.006,538.505,0.0
52101.0,STARLINK-3703,PAYLOAD,2022-10-22 19:13:31,15.08842122,0.0001879,53.2177,228.2704,52.7682,307.3482,5.5984e-05,6.03e-06,0.0,0 STARLINK-3703,1 52101U 22029P   22295.80105984  .00000603  00000-0  55984-4 0  9993,2 52101  53.2177 228.2704 0001879  52.7682 307.3482 15.08842122 34373,6917.874,95.437,541.039,538.439,0.0
52101.0,STARLINK-3703,PAYLOAD,2022-10-23 04:45:49,15.08844777,0.0001759,53.2172,226.4874,60.0668,300.0498,0.00011292,1.51e-05,0.0,0 STARLINK-3703,1 52101U 22029P   22296.19849524  .00001510  00000-0  11292-3 0  9992,2 52101  53.2172 226.4874 0001759  60.0668 300.0498 15.08844777 34431,6917.866,95.437,540.948,538.514,0.0
52101.0,STARLINK-3703,PAYLOAD,2022-10-23 12:42:45,15.08844185,0.0001871,53.2175,224.9999,56.6061,303.511,0.00019073,2.749e-05,0.0,0 STARLINK-3703,1 52101U 22029P   22296.52969318  .00002749  00000-0  19073-3 0  9993,2 52101  53.2175 224.9999 0001871  56.6061 303.5110 15.08844185 34485,6917.868,95.437,541.0269999999998,538.438,0.0
52101.0,STARLINK-3703,PAYLOAD,2022-10-24 04:36:36,15.08848852,0.0001855999999999,53.2166,222.0252,55.4748,304.6419,8.7786e-05,1.11e-05,0.0,0 STARLINK-3703,1 52101U 22029P   22297.19209001  .00001110  00000-0  87786-4 0  9991,2 52101  53.2166 222.0252 0001856  55.4748 304.6419 15.08848852 34588,6917.853,95.437,541.002,538.434,0.0
52101.0,STARLINK-3703,PAYLOAD,2022-10-25 01:16:39,15.08828696,0.0001601,53.217,218.1592,58.9827,301.1322,-0.00015073,-2.685e-05,0.0,0 STARLINK-3703,1 52101U 22029P   22298.05323526 -.00002685  00000-0 -15073-3 0  9995,2 52101  53.2170 218.1592 0001601  58.9827 301.1322 15.08828696 34714,6917.915,95.438,540.887,538.672,0.0
52101.0,STARLINK-3703,PAYLOAD,2022-10-25 04:27:25,15.08829431,0.0001604,53.2168,217.5642,60.1146,300.0005,-0.00014082,-2.528e-05,0.0,0 STARLINK-3703,1 52101U 22029P   22298.18571508 -.00002528  00000-0 -14082-3 0  9999,2 52101  53.2168 217.5642 0001604  60.1146 300.0005 15.08829431 34738,6917.913000000001,95.438,540.887,538.668,0.0
52101.0,STARLINK-3703,PAYLOAD,2022-10-26 04:18:13,15.08828161,0.0001626999999999,53.2174,213.1035,60.7865,299.329,-8.077199999999999e-05,-1.573e-05,0.0,0 STARLINK-3703,1 52101U 22029P   22299.17932232 -.00001573  00000-0 -80772-4 0  9993,2 52101  53.2174 213.1035 0001627  60.7865 299.3290 15.08828161 34883,6917.917,95.438,540.9069999999998,538.656,0.0
52101.0,STARLINK-3703,PAYLOAD,2022-10-27 02:33:37,15.08835405,0.0001729,53.2175,208.9415,60.1623,299.9541,0.00021536,3.141e-05,0.0,0 STARLINK-3703,1 52101U 22029P   22300.10668106  .00003141  00000-0  21536-3 0  9998,2 52101  53.2175 208.9415 0001729  60.1623 299.9541 15.08835405 35028,6917.894,95.438,540.956,538.563,0.0
52101.0,STARLINK-3703,PAYLOAD,2022-10-27 10:30:32,15.08845261,0.000172,53.2176,207.4545,61.767,298.3496,0.00027547,4.099e-05,0.0,0 STARLINK-3703,1 52101U 22029P   22300.43787525  .00004099  00000-0  27547-3 0  9992,2 52101  53.2176 207.4545 0001720  61.7670 298.3496 15.08845261 35075,6917.864000000001,95.437,540.919,538.539,0.0
52101.0,STARLINK-3703,PAYLOAD,2022-10-28 10:21:19,15.08858958,0.000183,53.217,202.9947,63.842,296.276,0.00033527,5.055e-05,0.0,0 STARLINK-3703,1 52101U 22029P   22301.43147038  .00005055  00000-0  33527-3 0  9990,2 52101  53.2170 202.9947 0001830  63.8420 296.2760 15.08858958 35228,6917.821999999999,95.436,540.953,538.4209999999998,0.0
52101.0,STARLINK-3703,PAYLOAD,2022-10-29 03:50:32,15.08859685,0.0001665,53.2167,199.7228,62.7794,297.3368,0.00010883,1.445e-05,0.0,0 STARLINK-3703,1 52101U 22029P   22302.16010228  .00001445  00000-0  10883-3 0  9990,2 52101  53.2167 199.7228 0001665  62.7794 297.3368 15.08859685 35333,6917.82,95.436,540.837,538.533,0.0
52101.0,STARLINK-3703,PAYLOAD,2022-10-30 10:02:51,15.08854265,0.0001758,53.2167,194.0726,57.9538,302.1625,3.5339e-05,2.75e-06,0.0,0 STARLINK-3703,1 52101U 22029P   22303.41865470  .00000275  00000-0  35339-4 0  9990,2 52101  53.2167 194.0726 0001758  57.9538 302.1625 15.08854265 35520,6917.837,95.437,540.918,538.486,0.0
52101.0,STARLINK-3703,PAYLOAD,2022-10-30 21:10:34,15.08837499,0.0001929,53.2181,191.9931,62.8474,297.2714,-7.330100000000001e-05,-1.455e-05,0.0,0 STARLINK-3703,1 52101U 22029P   22303.88234360 -.00001455  00000-0 -73301-4 0  9993,2 52101  53.2181 191.9931 0001929  62.8474 297.2714 15.08837499 35594,6917.888000000001,95.438,541.087,538.419,0.0
52101.0,STARLINK-3703,PAYLOAD,2022-10-31 09:53:39,15.08845637,0.0001684,53.2171,189.6122,60.8451,299.271,2.6146e-05,1.28e-06,0.0,0 STARLINK-3703,1 52101U 22029P   22304.41226066  .00000128  00000-0  26146-4 0  9996,2 52101  53.2171 189.6122 0001684  60.8451 299.2710 15.08845637 35670,6917.863,95.437,540.893,538.563,0.0
52101.0,STARLINK-3703,PAYLOAD,2022-10-31 16:15:11,15.08842546,0.0001476,53.2167,188.423,77.807,282.3088,5.5348e-05,5.93e-06,0.0,0 STARLINK-3703,1 52101U 22029P   22304.67722116  .00000593  00000-0  55348-4 0  9993,2 52101  53.2167 188.4230 0001476  77.8070 282.3088 15.08842546 35718,6917.873000000001,95.437,540.759,538.717,0.0
52101.0,STARLINK-3703,PAYLOAD,2022-11-01 01:47:30,15.08846265,0.0001686999999999,53.2163,186.6399,55.44,304.6751,0.00011766,1.585e-05,0.0,0 STARLINK-3703,1 52101U 22029P   22305.07465863  .00001585  00000-0  11766-3 0  9998,2 52101  53.2163 186.6399 0001687  55.4400 304.6751 15.08846265 35776,6917.861,95.437,540.893,538.559,0.0
52101.0,STARLINK-3703,PAYLOAD,2022-11-01 16:05:59,15.08833068,0.0001629999999999,53.2158,183.9629,58.3352,301.7799,9.1829e-05,1.173e-05,0.0,0 STARLINK-3703,1 52101U 22029P   22305.67082714  .00001173  00000-0  91829-4 0  9996,2 52101  53.2158 183.9629 0001630  58.3352 301.7799 15.08833068 35869,6917.901999999999,95.438,540.894,538.639,0.0
52101.0,STARLINK-3703,PAYLOAD,2022-11-02 01:38:18,15.08838096,0.0001639,53.2168,182.1788,58.6433,301.472,9.1741e-05,1.172e-05,0.0,0 STARLINK-3703,1 52101U 22029P   22306.06826476  .00001172  00000-0  91741-4 0  9993,2 52101  53.2168 182.1788 0001639  58.6433 301.4720 15.08838096 35923,6917.886,95.438,540.885,538.617,0.0
52101.0,STARLINK-3703,PAYLOAD,2022-11-02 14:21:24,15.08826261,0.0001858,53.2154,179.8007,58.0317,302.0856,-4.4415e-05,-9.95e-06,0.0,0 STARLINK-3703,1 52101U 22029P   22306.59819957 -.00000995  00000-0 -44415-4 0  9997,2 52101  53.2154 179.8007 0001858  58.0317 302.0856 15.08826261 36001,6917.922,95.438,541.073,538.502,0.0
52101.0,STARLINK-3703,PAYLOAD,2022-11-03 01:29:05,15.0883718,0.0001539,53.2165,177.7188,58.6379,301.4763,1.0343e-05,-1.23e-06,0.0,0 STARLINK-3703,1 52101U 22029P   22307.06187467 -.00000123  00000-0  10343-4 0  9999,2 52101  53.2165 177.7188 0001539  58.6379 301.4763 15.08837180 36079,6917.889,95.438,540.819,538.689,0.0
52101.0,STARLINK-3703,PAYLOAD,2022-11-03 15:47:34,15.08840612,0.0001471,53.2173,175.0428,56.4357,303.6775,7.921600000000001e-05,9.73e-06,0.0,0 STARLINK-3703,1 52101U 22029P   22307.65803306  .00000973  00000-0  79216-4 0  9997,2 52101  53.2173 175.0428 0001471  56.4357 303.6775 15.08840612 36164,6917.879,95.438,540.761,538.726,0.0
52101.0,STARLINK-3703,PAYLOAD,2022-11-04 01:19:52,15.08841511,0.0001527,53.2165,173.2581,59.4566,300.6577,0.00010171,1.331e-05,0.0,0 STARLINK-3703,1 52101U 22029P   22308.05547234  .00001331  00000-0  10171-3 0  9990,2 52101  53.2165 173.2581 0001527  59.4566 300.6577 15.08841511 36225,6917.876,95.437,540.797,538.684,0.0
52101.0,STARLINK-3703,PAYLOAD,2022-11-05 01:10:41,15.08801436,0.0001592,53.2164,168.798,50.7097,309.4036,0.00072548,0.00011265,0.0,0 STARLINK-3703,1 52101U 22029P   22309.04909015  .00011265  00000-0  72548-3 0  9992,2 52101  53.2164 168.7980 0001592  50.7097 309.4036 15.08801436 36376,6917.998000000001,95.44,540.965,538.762,0.0
52101.0,STARLINK-3703,PAYLOAD,2022-11-05 07:32:12,15.08840695,0.0001474,53.2164,167.6083,59.7656,300.3482,3.6784e-05,2.98e-06,0.0,0 STARLINK-3703,1 52101U 22029P   22309.31403798  .00000298  00000-0  36784-4 0  9996,2 52101  53.2164 167.6083 0001474  59.7656 300.3482 15.08840695 36417,6917.878000000002,95.438,540.763,538.724,0.0
